start=new Date('2022-02-20T00:00:00.000Z').valueOf();
sats=[{"DECAY_DATE":null,"ECCENTRICITY":"0.00039880","REV_AT_EPOCH":"356","SEMIMAJOR_AXIS":"6950.252","SITE":"AFWTR","CLASSIFICATION_TYPE":"U","REF_FRAME":"TEME","MEAN_MOTION_DDOT":"0.0000000000000","OBJECT_TYPE":"PAYLOAD","FILE":"3308986","RCS_SIZE":"LARGE","TLE_LINE2":"2 49159  69.9977  62.9634 0003988 284.6673 228.8995 14.98310895  3566","MEAN_ELEMENT_THEORY":"SGP4","NORAD_CAT_ID":"49159","GP_ID":"196429254","PERIOD":"96.108","COUNTRY_CODE":"US","RA_OF_ASC_NODE":"62.9634","TIME_SYSTEM":"UTC","LAUNCH_DATE":"2021-09-14","EPHEMERIS_TYPE":"0","TLE_LINE1":"1 49159U 21082AF  22050.91667824  .00061819  00000-0  51454-2 0  9999","MEAN_MOTION":"14.98310895","BSTAR":"0.00514540000000","INCLINATION":"69.9977","PERIAPSIS":"569.345","MEAN_ANOMALY":"228.8995","OBJECT_ID":"2021-082AF","OBJECT_NAME":"STARLINK-3056","CENTER_NAME":"EARTH","APOAPSIS":"574.889","ARG_OF_PERICENTER":"284.6673","ELEMENT_SET_NO":"999","EPOCH":"2022-02-19T22:00:00.999936","MEAN_MOTION_DOT":"0.00061819"},{"REV_AT_EPOCH":"355","SEMIMAJOR_AXIS":"6950.267","ECCENTRICITY":"0.00035290","DECAY_DATE":null,"MEAN_MOTION_DDOT":"0.0000000000000","OBJECT_TYPE":"PAYLOAD","SITE":"AFWTR","REF_FRAME":"TEME","CLASSIFICATION_TYPE":"U","TLE_LINE2":"2 49160  69.9985  62.9663 0003529 289.9375 274.9614 14.98305949  3550","FILE":"3308986","RCS_SIZE":"LARGE","GP_ID":"196430502","PERIOD":"96.109","NORAD_CAT_ID":"49160","MEAN_ELEMENT_THEORY":"SGP4","LAUNCH_DATE":"2021-09-14","TIME_SYSTEM":"UTC","EPHEMERIS_TYPE":"0","RA_OF_ASC_NODE":"62.9663","COUNTRY_CODE":"US","OBJECT_NAME":"STARLINK-3095","MEAN_ANOMALY":"274.9614","OBJECT_ID":"2021-082AG","TLE_LINE1":"1 49160U 21082AG  22050.91667824  .00060454  00000-0  50338-2 0  9995","MEAN_MOTION":"14.98305949","PERIAPSIS":"569.680","BSTAR":"0.00503380000000","INCLINATION":"69.9985","CENTER_NAME":"EARTH","APOAPSIS":"574.585","MEAN_MOTION_DOT":"0.00060454","EPOCH":"2022-02-19T22:00:00.999936","ELEMENT_SET_NO":"999","ARG_OF_PERICENTER":"289.9375"},{"TLE_LINE2":"2 49161  69.9982  62.9663 0003706 276.2926 262.9542 14.98311109  3569","RCS_SIZE":"LARGE","FILE":"3308986","PERIOD":"96.108","GP_ID":"196430756","MEAN_ELEMENT_THEORY":"SGP4","NORAD_CAT_ID":"49161","SEMIMAJOR_AXIS":"6950.251","REV_AT_EPOCH":"356","ECCENTRICITY":"0.00037060","DECAY_DATE":null,"OBJECT_TYPE":"PAYLOAD","MEAN_MOTION_DDOT":"0.0000000000000","CLASSIFICATION_TYPE":"U","REF_FRAME":"TEME","SITE":"AFWTR","APOAPSIS":"574.692","CENTER_NAME":"EARTH","MEAN_MOTION_DOT":"0.00060406","EPOCH":"2022-02-19T22:00:00.999936","ELEMENT_SET_NO":"999","ARG_OF_PERICENTER":"276.2926","EPHEMERIS_TYPE":"0","TIME_SYSTEM":"UTC","LAUNCH_DATE":"2021-09-14","RA_OF_ASC_NODE":"62.9663","COUNTRY_CODE":"US","OBJECT_NAME":"STARLINK-3080","OBJECT_ID":"2021-082AH","MEAN_ANOMALY":"262.9542","PERIAPSIS":"569.541","INCLINATION":"69.9982","BSTAR":"0.00502910000000","MEAN_MOTION":"14.98311109","TLE_LINE1":"1 49161U 21082AH  22050.91667824  .00060406  00000-0  50291-2 0  9991"},{"MEAN_MOTION_DOT":"0.00061529","EPOCH":"2022-02-19T22:00:00.999936","ELEMENT_SET_NO":"999","ARG_OF_PERICENTER":"281.5980","APOAPSIS":"574.760","CENTER_NAME":"EARTH","OBJECT_NAME":"STARLINK-3082","MEAN_ANOMALY":"308.9771","OBJECT_ID":"2021-082AJ","PERIAPSIS":"569.521","INCLINATION":"69.9989","BSTAR":"0.00512260000000","MEAN_MOTION":"14.98303344","TLE_LINE1":"1 49162U 21082AJ  22050.91667824  .00061529  00000-0  51226-2 0  9998","EPHEMERIS_TYPE":"0","LAUNCH_DATE":"2021-09-14","TIME_SYSTEM":"UTC","RA_OF_ASC_NODE":"62.9692","COUNTRY_CODE":"US","PERIOD":"96.109","GP_ID":"196429507","NORAD_CAT_ID":"49162","MEAN_ELEMENT_THEORY":"SGP4","TLE_LINE2":"2 49162  69.9989  62.9692 0003769 281.5980 308.9771 14.98303344  3553","RCS_SIZE":"LARGE","FILE":"3308986","OBJECT_TYPE":"PAYLOAD","MEAN_MOTION_DDOT":"0.0000000000000","REF_FRAME":"TEME","CLASSIFICATION_TYPE":"U","SITE":"AFWTR","SEMIMAJOR_AXIS":"6950.275","REV_AT_EPOCH":"355","ECCENTRICITY":"0.00037690","DECAY_DATE":null},{"TLE_LINE2":"2 49163  69.9999  43.1267 0003348 284.2020 310.5790 15.27501838  3632","RCS_SIZE":"LARGE","FILE":"3308986","PERIOD":"94.272","GP_ID":"196429755","NORAD_CAT_ID":"49163","MEAN_ELEMENT_THEORY":"SGP4","SEMIMAJOR_AXIS":"6861.420","REV_AT_EPOCH":"363","DECAY_DATE":null,"ECCENTRICITY":"0.00033480","OBJECT_TYPE":"PAYLOAD","MEAN_MOTION_DDOT":"0.0000000000000","REF_FRAME":"TEME","CLASSIFICATION_TYPE":"U","SITE":"AFWTR","APOAPSIS":"485.582","CENTER_NAME":"EARTH","EPOCH":"2022-02-19T22:00:00.999936","MEAN_MOTION_DOT":"-0.00661869","ARG_OF_PERICENTER":"284.2020","ELEMENT_SET_NO":"999","EPHEMERIS_TYPE":"0","TIME_SYSTEM":"UTC","LAUNCH_DATE":"2021-09-14","COUNTRY_CODE":"US","RA_OF_ASC_NODE":"43.1267","OBJECT_ID":"2021-082AK","MEAN_ANOMALY":"310.5790","OBJECT_NAME":"STARLINK-3088","BSTAR":"-0.02642900000000","INCLINATION":"69.9999","PERIAPSIS":"480.988","TLE_LINE1":"1 49163U 21082AK  22050.91667824 -.00661869  00000-0 -26429-1 0  9990","MEAN_MOTION":"15.27501838"},{"GP_ID":"196430002","PERIOD":"94.260","MEAN_ELEMENT_THEORY":"SGP4","NORAD_CAT_ID":"49164","TLE_LINE2":"2 49164  70.0000  43.1249 0003333 282.4773 342.5690 15.27682935  3630","FILE":"3308986","RCS_SIZE":"LARGE","MEAN_MOTION_DDOT":"0.0000000000000","OBJECT_TYPE":"PAYLOAD","SITE":"AFWTR","CLASSIFICATION_TYPE":"U","REF_FRAME":"TEME","REV_AT_EPOCH":"363","SEMIMAJOR_AXIS":"6860.878","ECCENTRICITY":"0.00033330","DECAY_DATE":null,"MEAN_MOTION_DOT":"-0.00660970","EPOCH":"2022-02-19T22:00:00.999936","ELEMENT_SET_NO":"999","ARG_OF_PERICENTER":"282.4773","CENTER_NAME":"EARTH","APOAPSIS":"485.030","OBJECT_NAME":"STARLINK-3106","OBJECT_ID":"2021-082AL","MEAN_ANOMALY":"342.5690","TLE_LINE1":"1 49164U 21082AL  22050.91667824 -.00660970  00000-0 -26245-1 0  9999","MEAN_MOTION":"15.27682935","PERIAPSIS":"480.456","BSTAR":"-0.02624500000000","INCLINATION":"70.0000","TIME_SYSTEM":"UTC","LAUNCH_DATE":"2021-09-14","EPHEMERIS_TYPE":"0","RA_OF_ASC_NODE":"43.1249","COUNTRY_CODE":"US"},{"GP_ID":"196430256","PERIOD":"96.108","NORAD_CAT_ID":"49165","MEAN_ELEMENT_THEORY":"SGP4","TLE_LINE2":"2 49165  69.9989  62.9682 0003320 277.9265 338.4725 14.98307374  3557","FILE":"3308986","RCS_SIZE":"LARGE","MEAN_MOTION_DDOT":"0.0000000000000","OBJECT_TYPE":"PAYLOAD","SITE":"AFWTR","REF_FRAME":"TEME","CLASSIFICATION_TYPE":"U","REV_AT_EPOCH":"355","SEMIMAJOR_AXIS":"6950.263","DECAY_DATE":null,"ECCENTRICITY":"0.00033200","EPOCH":"2022-02-19T22:00:00.999936","MEAN_MOTION_DOT":"0.00063106","ELEMENT_SET_NO":"999","ARG_OF_PERICENTER":"277.9265","CENTER_NAME":"EARTH","APOAPSIS":"574.435","OBJECT_ID":"2021-082AM","MEAN_ANOMALY":"338.4725","OBJECT_NAME":"STARLINK-3052","MEAN_MOTION":"14.98307374","TLE_LINE1":"1 49165U 21082AM  22050.91667824  .00063106  00000-0  52521-2 0  9993","INCLINATION":"69.9989","BSTAR":"0.00525210000000","PERIAPSIS":"569.820","TIME_SYSTEM":"UTC","LAUNCH_DATE":"2021-09-14","EPHEMERIS_TYPE":"0","COUNTRY_CODE":"US","RA_OF_ASC_NODE":"62.9682"},{"EPOCH":"2022-02-19T22:00:00.999936","MEAN_MOTION_DOT":"-0.00660897","ARG_OF_PERICENTER":"282.0210","ELEMENT_SET_NO":"999","APOAPSIS":"485.067","CENTER_NAME":"EARTH","MEAN_ANOMALY":"339.2831","OBJECT_ID":"2021-082AN","OBJECT_NAME":"STARLINK-3089","INCLINATION":"70.0000","BSTAR":"-0.02625400000000","PERIAPSIS":"480.509","MEAN_MOTION":"15.27667885","TLE_LINE1":"1 49166U 21082AN  22050.91667824 -.00660897  00000-0 -26254-1 0  9999","EPHEMERIS_TYPE":"0","TIME_SYSTEM":"UTC","LAUNCH_DATE":"2021-09-14","COUNTRY_CODE":"US","RA_OF_ASC_NODE":"43.1131","PERIOD":"94.261","GP_ID":"196429007","NORAD_CAT_ID":"49166","MEAN_ELEMENT_THEORY":"SGP4","TLE_LINE2":"2 49166  70.0000  43.1131 0003322 282.0210 339.2831 15.27667885  3639","RCS_SIZE":"LARGE","FILE":"3308986","OBJECT_TYPE":"PAYLOAD","MEAN_MOTION_DDOT":"0.0000000000000","REF_FRAME":"TEME","CLASSIFICATION_TYPE":"U","SITE":"AFWTR","SEMIMAJOR_AXIS":"6860.923","REV_AT_EPOCH":"363","DECAY_DATE":null,"ECCENTRICITY":"0.00033220"},{"CENTER_NAME":"EARTH","APOAPSIS":"574.451","ARG_OF_PERICENTER":"277.0720","ELEMENT_SET_NO":"999","MEAN_MOTION_DOT":"0.00066015","EPOCH":"2022-02-19T22:00:00.999936","RA_OF_ASC_NODE":"62.9535","COUNTRY_CODE":"US","TIME_SYSTEM":"UTC","LAUNCH_DATE":"2021-09-14","EPHEMERIS_TYPE":"0","MEAN_MOTION":"14.98300159","TLE_LINE1":"1 49167U 21082AP  22050.91667824  .00066015  00000-0  54926-2 0  9998","PERIAPSIS":"569.849","INCLINATION":"70.0008","BSTAR":"0.00549260000000","OBJECT_NAME":"STARLINK-3054","MEAN_ANOMALY":"5.0660","OBJECT_ID":"2021-082AP","FILE":"3308986","RCS_SIZE":"LARGE","TLE_LINE2":"2 49167  70.0008  62.9535 0003311 277.0720   5.0660 14.98300159  3557","MEAN_ELEMENT_THEORY":"SGP4","NORAD_CAT_ID":"49167","GP_ID":"196429255","PERIOD":"96.109","ECCENTRICITY":"0.00033110","DECAY_DATE":null,"REV_AT_EPOCH":"355","SEMIMAJOR_AXIS":"6950.285","SITE":"AFWTR","CLASSIFICATION_TYPE":"U","REF_FRAME":"TEME","MEAN_MOTION_DDOT":"0.0000000000000","OBJECT_TYPE":"PAYLOAD"},{"DECAY_DATE":null,"ECCENTRICITY":"0.00033580","SEMIMAJOR_AXIS":"6860.248","REV_AT_EPOCH":"363","REF_FRAME":"TEME","CLASSIFICATION_TYPE":"U","SITE":"AFWTR","OBJECT_TYPE":"PAYLOAD","MEAN_MOTION_DDOT":"0.0000000000000","RCS_SIZE":"LARGE","FILE":"3308986","TLE_LINE2":"2 49168  70.0001  43.1242 0003358 281.6664  12.4637 15.27893347  3630","NORAD_CAT_ID":"49168","MEAN_ELEMENT_THEORY":"SGP4","PERIOD":"94.247","GP_ID":"196430503","COUNTRY_CODE":"US","RA_OF_ASC_NODE":"43.1242","EPHEMERIS_TYPE":"0","TIME_SYSTEM":"UTC","LAUNCH_DATE":"2021-09-14","BSTAR":"-0.02603300000000","INCLINATION":"70.0001","PERIAPSIS":"479.809","MEAN_MOTION":"15.27893347","TLE_LINE1":"1 49168U 21082AQ  22050.91667824 -.00659943  00000-0 -26033-1 0  9996","OBJECT_ID":"2021-082AQ","MEAN_ANOMALY":"12.4637","OBJECT_NAME":"STARLINK-3101","APOAPSIS":"484.417","CENTER_NAME":"EARTH","ELEMENT_SET_NO":"999","ARG_OF_PERICENTER":"281.6664","EPOCH":"2022-02-19T22:00:00.999936","MEAN_MOTION_DOT":"-0.00659943"}];
